{
  "norad_id": 47807,
  "name": "STARLINK-2388",
  "history": [
    {
      "epoch": "2026-03-28T20:14:45.221280Z",
      "apogee_km": 476.0445455276258,
      "perigee_km": 474.3608170347288,
      "latitude_deg": -2.855965301944544e-05,
      "longitude_deg": -2.2013485364293017,
      "height_km": 476.06485805215175,
      "semi_major_axis_km": 6853.339681281177,
      "eccentricity": 0.00012284,
      "inclination_deg": 53.1605,
      "raan_deg": 127.7453,
      "arg_perigee_deg": 87.548,
      "mean_anomaly_deg": 272.5661,
      "mean_motion_rev_day": 15.30204149
    }
  ]
}